1 20253U 89077A   26204.77977131 -.00000366  00000-0  00000+0 0  9994
2 20253  12.4111 350.9379 0002146 104.1893 252.7842  1.00279053260925
1 20776U 90079A   26204.78228464 -.00000238  00000-0  00000+0 0  9995
2 20776  13.3262 349.5818 0003267 132.9452 239.3276  0.98580205   406
1 22787U 93056A   26204.61789189  .00000124  00000-0  00000+0 0  9998
2 22787  11.9077   3.3472 0001870 358.1175 190.9419  1.00274450118914
1 23467U 95003A   26204.71768774 -.00000023  00000-0  00000+0 0  9995
2 23467   9.6828  12.9784 0002887 101.1141 258.0441  1.00269861115310
1 23967U 96042A   26204.81565147 -.00000302  00000-0  00000+0 0  9994
2 23967  11.1515  16.8742 0006504 119.7964  45.1916  1.00200077109859
1 25544U 98067A   26204.83049110  .00009620  00000-0  18169-3 0  9995
2 25544  51.6314 118.7564 0006921 330.4598  29.5998 15.49124476577435
1 25967U 99063A   26204.82161086 -.00000190  00000-0  00000+0 0  9992
2 25967   9.8437  27.0103 0001956 138.3954  48.9717  1.00271243 97719
1 27168U 02001A   26203.68935113  .00000094  00000-0  00000-0 0  9999
2 27168  11.2216  21.6856 0099294   9.3175 176.5324  1.00270369 33311
1 27607U 02058C   26204.09590113  .00000878  00000-0  12088-3 0  9994
2 27607  64.5523  17.8775 0074286 255.8289 103.4556 14.83110516269786
1 28117U 03057A   26204.55601161 -.00000105  00000-0  00000+0 0  9999
2 28117   8.9612  33.6254 0002803 107.7338  75.6219  1.00270682 82817
1 28899U 05044A   26204.78332465 -.00000259  00000-0  00000+0 0  9997
2 28899   5.1426  43.6898 0002995  63.6024 259.7092  1.00271702 75882
1 30794U 07007B   26204.85233233 -.00000271  00000-0  00000+0 0  9990
2 30794   5.3901  73.2869 0003417  53.6916 216.6587  1.00271604 71063
1 32294U 07056B   26204.86905845  .00000140  00000-0  00000+0 0  9991
2 32294   5.3417  73.0616 0003561  48.0351 158.4446  1.00271427 68562
1 35943U 09054B   26204.83864506  .00000030  00000-0  00000+0 0  9998
2 35943   0.0678 149.4999 0003000 332.6522 184.3297  1.00272846 61672
1 36582U 10021B   26204.87475242  .00000093  00000-0  00000+0 0  9992
2 36582   0.0425 143.9544 0002484 346.2227 139.5169  1.00271071 59323
1 38098U 12011A   26204.84046507 -.00000053  00000-0  00000+0 0  9999
2 38098   0.0060  13.2408 0002025 133.1037 169.8844  1.00271619  7555
1 39034U 12075A   26204.83665171  .00000104  00000-0  00000+0 0  9999
2 39034   0.0707 349.8636 0003825 142.9466 162.7334  1.00276618 49521
1 39215U 13038A   26204.86878067  .00000138  00000-0  00000+0 0  9990
2 39215   2.9997   1.0984 0002644 138.3372 139.7895  1.00271379 44384
1 40296U 14069A   26204.07732898  .00000301  00000-0  00000+0 0  9992
2 40296  63.4510 211.8232 6635248 270.3256  19.8851  2.00598635 85957
1 40931U 15052B   25151.18580782  .00001310  00000-0  87238-4 0  9990
2 40931   6.0001  24.1284 0012872 339.0660  20.8941 14.78806187523042
1 43678U 18084H   26204.84631426  .00002173  00000-0  17702-3 0  9990
2 43678  98.1225  42.6621 0012280  57.4722 302.7685 15.00587913421713
1 43700U 18090A   26204.54610483  .00000000  00000-0  00000+0 0  9996
2 43700   0.0186  49.6880 0002702 107.0586   6.9459  1.00273645 28049
1 43803U 18099AX  26204.42449412  .00017809  00000-0  53040-3 0  9999
2 43803  97.4109 267.4075 0007346 133.9181 226.2670 15.34728198419183
1 44453U 19046A   26201.61823657 -.00000074  00000-0  00000-0 0  9991
2 44453  63.1578  46.4311 7083475 274.9529  14.5912  2.00596847 51013
1 44909U 19096E   26204.59358229  .00000007  00000-0 -22705-4 0  9996
2 44909  82.5245 315.5155 0218350  59.4462 302.7988 12.79748902307004
1 45254U 20015A   26204.35898344 -.00000054  00000-0  00000+0 0  9995
2 45254  65.5499 315.1620 6846859 277.2859  15.7218  2.00609018 47016
1 52145U 22030A   26204.35823564  .00000117  00000-0  00000+0 0  9992
2 52145  62.6771 136.8832 6794036 272.8364  17.5907  2.00608183 31759
1 57167U 23091B   26010.59363612  .08733485  25619-5  12458-2 0  9993
2 57167  97.4978  91.1570 0009532 282.8011  77.2220 16.34765267141469
1 59112U 24043Q   26204.37832557  .00047130  00000-0  55216-3 0  9992
2 59112  97.5560 357.0780 0006369  79.1760 281.0214 15.61378243133539
1 67291U 25313AV  26204.19629719  .00014210  00000-0  53589-3 0  9998
2 67291  97.3915 279.0500 0008095 214.8705 145.2005 15.27131934 31482
1 26635U 00080A   21013.46269075 0.00000000  00000-0  00000-0 0    09
2 26635   9.2857  29.8038 0014383 186.3086 173.6859  1.00273100    09
1 34810U 09020A   26118.58802400 0.00000000  00000-0  00000-0 0    05
2 34810   3.0809  80.0043 0003222 250.4250 109.5484  1.00270000    01
1 40614U 15022B   25359.93496764 0.00000000  00000-0  00000-0 0    00
2 40614   0.0160 108.2839 0003453 352.8976   7.0980  1.00270000    04
